CSS (TIANHE)            
1 48274U 21035A   23244.84795601  .00020232  00000+0  23174-3 0  9999
2 48274  41.4740  49.7622 0010817 281.8636  78.0990 15.61563698133817
